{
  "type": "FeatureCollection",
  "features": [
    {
      "type": "Feature",
      "properties": {
        "norad_id": 31338,
        "name": "FENGYUN 1C DEB",
        "group": "fengyun-1c-debris",
        "lat": -61.168751030538324,
        "lon": -144.19147716986888,
        "alt_km": 865.052443257604,
        "timestamp": "2025-12-25T19:00:39.632918+00:00",
        "meta_object_name": "FENGYUN 1C DEB",
        "meta_object_id": "1999-025BQS",
        "meta_epoch": "2025-12-24T19:38:38.429376",
        "meta_mean_motion": 14.20844571,
        "meta_eccentricity": 0.00720648,
        "meta_inclination": 98.7165,
        "meta_ra_of_asc_node": 198.6657,
        "meta_arg_of_pericenter": 73.8557,
        "meta_mean_anomaly": 287.0537,
        "meta_ephemeris_type": 0,
        "meta_classification_type": "U",
        "meta_norad_cat_id": 31338,
        "meta_element_set_no": 999,
        "meta_rev_at_epoch": 63829,
        "meta_bstar": 0.0023341859,
        "meta_mean_motion_dot": 5.139e-05,
        "meta_mean_motion_ddot": 0,
        "tle_line1": "1 31338U 99025BQS 25358.81850034  .00005139  00000+0  23342-2 0  9998",
        "tle_line2": "2 31338  98.7165 198.6657 0072064  73.8557 287.0537 14.20844571638298"
      },
      "geometry": {
        "type": "Point",
        "coordinates": [
          -144.19147716986888,
          -61.168751030538324
        ]
      }
    },
    {
      "type": "Feature",
      "properties": {
        "norad_id": 31339,
        "name": "FENGYUN 1C DEB",
        "group": "fengyun-1c-debris",
        "lat": -78.98486888318679,
        "lon": 68.07150159708382,
        "alt_km": 806.4323933227342,
        "timestamp": "2025-12-25T19:00:39.632930+00:00",
        "meta_object_name": "FENGYUN 1C DEB",
        "meta_object_id": "1999-025BQT",
        "meta_epoch": "2025-12-22T18:16:56.374176",
        "meta_mean_motion": 14.12202748,
        "meta_eccentricity": 0.0074249,
        "meta_inclination": 98.713,
        "meta_ra_of_asc_node": 13.1448,
        "meta_arg_of_pericenter": 296.4743,
        "meta_mean_anomaly": 62.8826,
        "meta_ephemeris_type": 0,
        "meta_classification_type": "U",
        "meta_norad_cat_id": 31339,
        "meta_element_set_no": 999,
        "meta_rev_at_epoch": 95819,
        "meta_bstar": 0.0008032206,
        "meta_mean_motion_dot": 1.471e-05,
        "meta_mean_motion_ddot": 0,
        "tle_line1": "1 31339U 99025BQT 25356.76176359  .00001471  00000+0  80322-3 0  9999",
        "tle_line2": "2 31339  98.7130  13.1448 0074249 296.4743  62.8826 14.12202748958196"
      },
      "geometry": {
        "type": "Point",
        "coordinates": [
          68.07150159708382,
          -78.98486888318679
        ]
      }
    },
    {
      "type": "Feature",
      "properties": {
        "norad_id": 31341,
        "name": "FENGYUN 1C DEB",
        "group": "fengyun-1c-debris",
        "lat": 53.35491907919236,
        "lon": 29.76738100448609,
        "alt_km": 720.089379581731,
        "timestamp": "2025-12-25T19:00:39.632940+00:00",
        "meta_object_name": "FENGYUN 1C DEB",
        "meta_object_id": "1999-025BQV",
        "meta_epoch": "2025-12-21T09:06:25.877088",
        "meta_mean_motion": 14.53401533,
        "meta_eccentricity": 0.00529379,
        "meta_inclination": 99.5547,
        "meta_ra_of_asc_node": 37.8287,
        "meta_arg_of_pericenter": 320.7191,
        "meta_mean_anomaly": 57.8941,
        "meta_ephemeris_type": 0,
        "meta_classification_type": "U",
        "meta_norad_cat_id": 31341,
        "meta_element_set_no": 999,
        "meta_rev_at_epoch": 97744,
        "meta_bstar": 0.00093378825,
        "meta_mean_motion_dot": 3.901e-05,
        "meta_mean_motion_ddot": 0,
        "tle_line1": "1 31341U 99025BQV 25355.37946617  .00003901  00000+0  93379-3 0  9996",
        "tle_line2": "2 31341  99.5547  37.8287 0052937 320.7191  57.8941 14.53401533977441"
      },
      "geometry": {
        "type": "Point",
        "coordinates": [
          29.76738100448609,
          53.35491907919236
        ]
      }
    },
    {
      "type": "Feature",
      "properties": {
        "norad_id": 31342,
        "name": "FENGYUN 1C DEB",
        "group": "fengyun-1c-debris",
        "lat": 59.88314884753352,
        "lon": 152.28638268415796,
        "alt_km": 725.2838450242652,
        "timestamp": "2025-12-25T19:00:39.632950+00:00",
        "meta_object_name": "FENGYUN 1C DEB",
        "meta_object_id": "1999-025BQW",
        "meta_epoch": "2025-12-18T02:36:10.701216",
        "meta_mean_motion": 14.36773127,
        "meta_eccentricity": 0.01116396,
        "meta_inclination": 98.9375,
        "meta_ra_of_asc_node": 308.5708,
        "meta_arg_of_pericenter": 203.5092,
        "meta_mean_anomaly": 156.0968,
        "meta_ephemeris_type": 0,
        "meta_classification_type": "U",
        "meta_norad_cat_id": 31342,
        "meta_element_set_no": 999,
        "meta_rev_at_epoch": 97968,
        "meta_bstar": 0.00010025422,
        "meta_mean_motion_dot": 2.67e-06,
        "meta_mean_motion_ddot": 0,
        "tle_line1": "1 31342U 99025BQW 25352.10845719  .00000267  00000+0  10025-3 0  9995",
        "tle_line2": "2 31342  98.9375 308.5708 0111639 203.5092 156.0968 14.36773127979684"
      },
      "geometry": {
        "type": "Point",
        "coordinates": [
          152.28638268415796,
          59.88314884753352
        ]
      }
    },
    {
      "type": "Feature",
      "properties": {
        "norad_id": 31346,
        "name": "FENGYUN 1C DEB",
        "group": "fengyun-1c-debris",
        "lat": -12.702761006951667,
        "lon": 146.8057410603127,
        "alt_km": 593.0611135229728,
        "timestamp": "2025-12-25T19:00:39.632962+00:00",
        "meta_object_name": "FENGYUN 1C DEB",
        "meta_object_id": "1999-025BRA",
        "meta_epoch": "2025-12-22T15:28:43.197024",
        "meta_mean_motion": 15.11348724,
        "meta_eccentricity": 0.0108825,
        "meta_inclination": 98.867,
        "meta_ra_of_asc_node": 325.1755,
        "meta_arg_of_pericenter": 342.8884,
        "meta_mean_anomaly": 16.8683,
        "meta_ephemeris_type": 0,
        "meta_classification_type": "U",
        "meta_norad_cat_id": 31346,
        "meta_element_set_no": 999,
        "meta_rev_at_epoch": 99645,
        "meta_bstar": 0.0012559476,
        "meta_mean_motion_dot": 0.00024407,
        "meta_mean_motion_ddot": 0,
        "tle_line1": "1 31346U 99025BRA 25356.64494441  .00024407  00000+0  12559-2 0  9999",
        "tle_line2": "2 31346  98.8670 325.1755 0108825 342.8884  16.8683 15.11348724996457"
      },
      "geometry": {
        "type": "Point",
        "coordinates": [
          146.8057410603127,
          -12.702761006951667
        ]
      }
    },
    {
      "type": "Feature",
      "properties": {
        "norad_id": 31348,
        "name": "FENGYUN 1C DEB",
        "group": "fengyun-1c-debris",
        "lat": -15.981950290172877,
        "lon": 128.83885010675104,
        "alt_km": 808.1776621216786,
        "timestamp": "2025-12-25T19:00:39.632972+00:00",
        "meta_object_name": "FENGYUN 1C DEB",
        "meta_object_id": "1999-025BRC",
        "meta_epoch": "2025-12-20T16:26:32.079264",
        "meta_mean_motion": 14.34088322,
        "meta_eccentricity": 0.00363564,
        "meta_inclination": 99.1201,
        "meta_ra_of_asc_node": 306.0927,
        "meta_arg_of_pericenter": 43.3211,
        "meta_mean_anomaly": 81.157,
        "meta_ephemeris_type": 0,
        "meta_classification_type": "U",
        "meta_norad_cat_id": 31348,
        "meta_element_set_no": 999,
        "meta_rev_at_epoch": 96363,
        "meta_bstar": 0.00079714977,
        "meta_mean_motion_dot": 2.198e-05,
        "meta_mean_motion_ddot": 0,
        "tle_line1": "1 31348U 99025BRC 25354.68509351  .00002198  00000+0  79715-3 0  9991",
        "tle_line2": "2 31348  99.1201 306.0927 0036356  43.3211  81.1570 14.34088322963631"
      },
      "geometry": {
        "type": "Point",
        "coordinates": [
          128.83885010675104,
          -15.981950290172877
        ]
      }
    },
    {
      "type": "Feature",
      "properties": {
        "norad_id": 31350,
        "name": "FENGYUN 1C DEB",
        "group": "fengyun-1c-debris",
        "lat": 44.278937875851064,
        "lon": 1.1454806039942111,
        "alt_km": 739.2424221277415,
        "timestamp": "2025-12-25T19:00:39.632982+00:00",
        "meta_object_name": "FENGYUN 1C DEB",
        "meta_object_id": "1999-025BRE",
        "meta_epoch": "2025-12-20T17:53:36.412512",
        "meta_mean_motion": 14.34870807,
        "meta_eccentricity": 0.00669241,
        "meta_inclination": 98.9598,
        "meta_ra_of_asc_node": 167.0621,
        "meta_arg_of_pericenter": 102.0687,
        "meta_mean_anomaly": 258.8007,
        "meta_ephemeris_type": 0,
        "meta_classification_type": "U",
        "meta_norad_cat_id": 31350,
        "meta_element_set_no": 999,
        "meta_rev_at_epoch": 70368,
        "meta_bstar": 0.00033722959,
        "meta_mean_motion_dot": 9.36e-06,
        "meta_mean_motion_ddot": 0,
        "tle_line1": "1 31350U 99025BRE 25354.74556033  .00000936  00000+0  33723-3 0  9997",
        "tle_line2": "2 31350  98.9598 167.0621 0066924 102.0687 258.8007 14.34870807703682"
      },
      "geometry": {
        "type": "Point",
        "coordinates": [
          1.1454806039942111,
          44.278937875851064
        ]
      }
    }
  ]
}